{"type": "FeatureCollection", "features": [ {"type": "Feature", "properties": {"norad_id": 66052, "name": "HRC MONOBLOCK CAMERA", "group": "stations", "lat": -24.455357600061948, "lon": -59.77202903979526, "alt_km": 404.7392633552745, "timestamp": "2025-12-21T05:44:50.324941+00:00", "meta": {"OBJECT_NAME": "HRC MONOBLOCK CAMERA", "OBJECT_ID": "1998-067XR", "EPOCH": "2025-12-20T19:35:01.873824", "MEAN_MOTION": 15.5467343, "ECCENTRICITY": 0.00023968, "INCLINATION": 51.6308, "RA_OF_ASC_NODE": 101.2223, "ARG_OF_PERICENTER": 223.3083, "MEAN_ANOMALY": 136.772, "EPHEMERIS_TYPE": 0, "CLASSIFICATION_TYPE": "U", "NORAD_CAT_ID": 66052, "ELEMENT_SET_NO": 999, "REV_AT_EPOCH": 1009, "BSTAR": 0.00038306555, "MEAN_MOTION_DOT": 0.0002547, "MEAN_MOTION_DDOT": 0}, "tle": {"line1": "1 66052U 98067XR  25354.81599391  .00025470  00000+0  38307-3 0  9994", "line2": "2 66052  51.6308 101.2223 0002396 223.3083 136.7720 15.54673430 10090"}}, "geometry": {"type": "Point", "coordinates": [-59.77202903979526, -24.455357600061948]}}, {"type": "Feature", "properties": {"norad_id": 66174, "name": "HTV-X1", "group": "stations", "lat": -32.08482217171509, "lon": 70.60487363096499, "alt_km": 419.71914929393006, "timestamp": "2025-12-21T05:44:50.324951+00:00", "meta": {"OBJECT_NAME": "HTV-X1", "OBJECT_ID": "2025-241A", "EPOCH": "2025-12-20T16:00:06.135552", "MEAN_MOTION": 15.49686708, "ECCENTRICITY": 0.00031636, "INCLINATION": 51.6321, "RA_OF_ASC_NODE": 103.2234, "ARG_OF_PERICENTER": 277.4707, "MEAN_ANOMALY": 82.5922, "EPHEMERIS_TYPE": 0, "CLASSIFICATION_TYPE": "U", "NORAD_CAT_ID": 66174, "ELEMENT_SET_NO": 999, "REV_AT_EPOCH": 51, "BSTAR": 0.00013711052, "MEAN_MOTION_DOT": 7.293e-05, "MEAN_MOTION_DDOT": 0}, "tle": {"line1": "1 66174U 25241A   25354.66673768  .00007293  00000+0  13711-3 0  9992", "line2": "2 66174  51.6321 103.2234 0003163 277.4707  82.5922 15.49686708   514"}}, "geometry": {"type": "Point", "coordinates": [70.60487363096499, -32.08482217171509]}}, {"type": "Feature", "properties": {"norad_id": 66515, "name": "SZ-21 MODULE", "group": "stations", "lat": 29.998845323542724, "lon": 4.988745268463564, "alt_km": 375.18612894526086, "timestamp": "2025-12-21T05:44:50.324961+00:00", "meta": {"OBJECT_NAME": "SZ-21 MODULE", "OBJECT_ID": "2025-246C", "EPOCH": "2025-12-20T23:24:14.872896", "MEAN_MOTION": 15.62888699, "ECCENTRICITY": 0.00054503, "INCLINATION": 41.4771, "RA_OF_ASC_NODE": 325.7933, "ARG_OF_PERICENTER": 303.7455, "MEAN_ANOMALY": 56.2865, "EPHEMERIS_TYPE": 0, "CLASSIFICATION_TYPE": "U", "NORAD_CAT_ID": 66515, "ELEMENT_SET_NO": 999, "REV_AT_EPOCH": 573, "BSTAR": 0.00022985973, "MEAN_MOTION_DOT": 0.00021102, "MEAN_MOTION_DDOT": 0}, "tle": {"line1": "1 66515U 25246C   25354.97517214  .00021102  00000+0  22986-3 0  9992", "line2": "2 66515  41.4771 325.7933 0005450 303.7455  56.2865 15.62888699  5731"}}, "geometry": {"type": "Point", "coordinates": [4.988745268463564, 29.998845323542724]}}, {"type": "Feature", "properties": {"norad_id": 66645, "name": "SHENZHOU-22", "group": "stations", "lat": 24.048643333295114, "lon": -4.5565682107515775, "alt_km": 383.0072194662753, "timestamp": "2025-12-21T05:44:50.324971+00:00", "meta": {"OBJECT_NAME": "SHENZHOU-22", "OBJECT_ID": "2025-272A", "EPOCH": "2025-12-20T23:26:14.890272", "MEAN_MOTION": 15.59514827, "ECCENTRICITY": 0.00077445, "INCLINATION": 41.4685, "RA_OF_ASC_NODE": 326.6888, "ARG_OF_PERICENTER": 103.1948, "MEAN_ANOMALY": 256.9755, "EPHEMERIS_TYPE": 0, "CLASSIFICATION_TYPE": "U", "NORAD_CAT_ID": 66645, "ELEMENT_SET_NO": 999, "REV_AT_EPOCH": 26519, "BSTAR": 0.00017446348, "MEAN_MOTION_DOT": 0.00013949, "MEAN_MOTION_DDOT": 0}, "tle": {"line1": "1 66645U 25272A   25354.97656123  .00013949  00000+0  17446-3 0  9993", "line2": "2 66645  41.4685 326.6888 0007744 103.1948 256.9755 15.59514827265195"}}, "geometry": {"type": "Point", "coordinates": [-4.5565682107515775, 24.048643333295114]}}, {"type": "Feature", "properties": {"norad_id": 66664, "name": "SOYUZ-MS 28", "group": "stations", "lat": -32.08482085387238, "lon": 70.60487530496155, "alt_km": 419.7191492596603, "timestamp": "2025-12-21T05:44:50.324981+00:00", "meta": {"OBJECT_NAME": "SOYUZ-MS 28", "OBJECT_ID": "2025-275A", "EPOCH": "2025-12-20T16:00:06.135552", "MEAN_MOTION": 15.49686708, "ECCENTRICITY": 0.00031636, "INCLINATION": 51.6321, "RA_OF_ASC_NODE": 103.2234, "ARG_OF_PERICENTER": 277.4707, "MEAN_ANOMALY": 82.5922, "EPHEMERIS_TYPE": 0, "CLASSIFICATION_TYPE": "U", "NORAD_CAT_ID": 66664, "ELEMENT_SET_NO": 999, "REV_AT_EPOCH": 128, "BSTAR": 0.00013711052, "MEAN_MOTION_DOT": 7.293e-05, "MEAN_MOTION_DDOT": 0}, "tle": {"line1": "1 66664U 25275A   25354.66673768  .00007293  00000+0  13711-3 0  9993", "line2": "2 66664  51.6321 103.2234 0003163 277.4707  82.5922 15.49686708  1283"}}, "geometry": {"type": "Point", "coordinates": [70.60487530496155, -32.08482085387238]}}, {"type": "Feature", "properties": {"norad_id": 66906, "name": "1998-067XS", "group": "stations", "lat": 17.581518591670918, "lon": 114.7887078932851, "alt_km": 413.61420255402754, "timestamp": "2025-12-21T05:44:50.324991+00:00", "meta": {"OBJECT_NAME": "1998-067XS", "OBJECT_ID": "1998-067XS", "EPOCH": "2025-12-20T11:05:35.991168", "MEAN_MOTION": 15.50962254, "ECCENTRICITY": 0.00030029, "INCLINATION": 51.6311, "RA_OF_ASC_NODE": 104.1082, "ARG_OF_PERICENTER": 237.5, "MEAN_ANOMALY": 122.5699, "EPHEMERIS_TYPE": 0, "CLASSIFICATION_TYPE": "U", "NORAD_CAT_ID": 66906, "ELEMENT_SET_NO": 999, "REV_AT_EPOCH": 281, "BSTAR": 0.00037246497, "MEAN_MOTION_DOT": 0.00021596, "MEAN_MOTION_DDOT": 0}, "tle": {"line1": "1 66906U 98067XS  25354.46222212  .00021596  00000+0  37246-3 0  9994", "line2": "2 66906  51.6311 104.1082 0003002 237.5000 122.5699 15.50962254  2818"}}, "geometry": {"type": "Point", "coordinates": [114.7887078932851, 17.581518591670918]}}, {"type": "Feature", "properties": {"norad_id": 66907, "name": "1998-067XT", "group": "stations", "lat": 48.88995743149692, "lon": 165.35623623575174, "alt_km": 405.48810104087624, "timestamp": "2025-12-21T05:44:50.325001+00:00", "meta": {"OBJECT_NAME": "1998-067XT", "OBJECT_ID": "1998-067XT", "EPOCH": "2025-12-19T11:42:50.767776", "MEAN_MOTION": 15.52255247, "ECCENTRICITY": 0.0003998, "INCLINATION": 51.6306, "RA_OF_ASC_NODE": 108.8528, "ARG_OF_PERICENTER": 265.7173, "MEAN_ANOMALY": 94.336, "EPHEMERIS_TYPE": 0, "CLASSIFICATION_TYPE": "U", "NORAD_CAT_ID": 66907, "ELEMENT_SET_NO": 999, "REV_AT_EPOCH": 266, "BSTAR": 0.00077339, "MEAN_MOTION_DOT": 0.00047666, "MEAN_MOTION_DDOT": 0}, "tle": {"line1": "1 66907U 98067XT  25353.48808759  .00047666  00000+0  77339-3 0  9995", "line2": "2 66907  51.6306 108.8528 0003998 265.7173  94.3360 15.52255247  2660"}}, "geometry": {"type": "Point", "coordinates": [165.35623623575174, 48.88995743149692]}}, {"type": "Feature", "properties": {"norad_id": 66908, "name": "1998-067XU", "group": "stations", "lat": 50.24339964253741, "lon": 172.38031844750043, "alt_km": 404.9883219070771, "timestamp": "2025-12-21T05:44:50.325011+00:00", "meta": {"OBJECT_NAME": "1998-067XU", "OBJECT_ID": "1998-067XU", "EPOCH": "2025-12-20T13:57:38.962944", "MEAN_MOTION": 15.52465702, "ECCENTRICITY": 0.0003923, "INCLINATION": 51.6312, "RA_OF_ASC_NODE": 103.4063, "ARG_OF_PERICENTER": 272.2862, "MEAN_ANOMALY": 87.7679, "EPHEMERIS_TYPE": 0, "CLASSIFICATION_TYPE": "U", "NORAD_CAT_ID": 66908, "ELEMENT_SET_NO": 999, "REV_AT_EPOCH": 283, "BSTAR": 0.00073918, "MEAN_MOTION_DOT": 0.00045874, "MEAN_MOTION_DDOT": 0}, "tle": {"line1": "1 66908U 98067XU  25354.58170096  .00045874  00000+0  73918-3 0  9992", "line2": "2 66908  51.6312 103.4063 0003923 272.2862  87.7679 15.52465702  2836"}}, "geometry": {"type": "Point", "coordinates": [172.38031844750043, 50.24339964253741]}}, {"type": "Feature", "properties": {"norad_id": 66909, "name": "SILVERSAT", "group": "stations", "lat": 51.3242244413527, "lon": -178.07378630069482, "alt_km": 404.3721506713391, "timestamp": "2025-12-21T05:44:50.325021+00:00", "meta": {"OBJECT_NAME": "SILVERSAT", "OBJECT_ID": "1998-067XV", "EPOCH": "2025-12-19T13:13:09.424128", "MEAN_MOTION": 15.5251652, "ECCENTRICITY": 0.0003839, "INCLINATION": 51.6306, "RA_OF_ASC_NODE": 108.5226, "ARG_OF_PERICENTER": 268.696, "MEAN_ANOMALY": 91.359, "EPHEMERIS_TYPE": 0, "CLASSIFICATION_TYPE": "U", "NORAD_CAT_ID": 66909, "ELEMENT_SET_NO": 999, "REV_AT_EPOCH": 267, "BSTAR": 0.00079912, "MEAN_MOTION_DOT": 0.00049748, "MEAN_MOTION_DDOT": 0}, "tle": {"line1": "1 66909U 98067XV  25353.55080352  .00049748  00000+0  79912-3 0  9998", "line2": "2 66909  51.6306 108.5226 0003839 268.6960  91.3590 15.52516520  2671"}}, "geometry": {"type": "Point", "coordinates": [-178.07378630069482, 51.3242244413527]}}, {"type": "Feature", "properties": {"norad_id": 66910, "name": "1998-067XW", "group": "stations", "lat": 51.34734948105641, "lon": -162.04260035884957, "alt_km": 404.47082693646007, "timestamp": "2025-12-21T05:44:50.325031+00:00", "meta": {"OBJECT_NAME": "1998-067XW", "OBJECT_ID": "1998-067XW", "EPOCH": "2025-12-20T20:04:19.500384", "MEAN_MOTION": 15.52648438, "ECCENTRICITY": 0.00041993, "INCLINATION": 51.6307, "RA_OF_ASC_NODE": 102.1064, "ARG_OF_PERICENTER": 252.0731, "MEAN_ANOMALY": 107.9801, "EPHEMERIS_TYPE": 0, "CLASSIFICATION_TYPE": "U", "NORAD_CAT_ID": 66910, "ELEMENT_SET_NO": 999, "REV_AT_EPOCH": 287, "BSTAR": 0.00071943778, "MEAN_MOTION_DOT": 0.0004493, "MEAN_MOTION_DDOT": 0}, "tle": {"line1": "1 66910U 98067XW  25354.83633681  .00044930  00000+0  71944-3 0  9996", "line2": "2 66910  51.6307 102.1064 0004199 252.0731 107.9801 15.52648438  2872"}}, "geometry": {"type": "Point", "coordinates": [-162.04260035884957, 51.34734948105641]}}]}